# From MPEC 2026-E44
C/2020 H11 (PANSTARRS-Lemmon),e,151.3678,303.0585,91.3454,5294,0.0000026,0.99856036,0.0000,09/11.2679/2020,2000,g  8.5,4.0
# From MPEC 2026-E44
C/2020 J1 (SONEAR),e,142.3115,226.5497,341.5084,3709,0.0000044,0.99909851,0.0000,04/17.4158/2021,2000,g  8.5,3.2
# From MPEC 2026-E43
C/2020 K1 (PANSTARRS),e,89.6716,94.3664,213.9489,1568,0.0000159,0.99803953,0.0000,05/08.2868/2023,2000,g  5.5,4.0
# From MPEC 2026-E44
C/2020 K2 (PANSTARRS),h,08/03.0830/2020,90.9922,288.4425,67.2805,1.000283,8.879616,2000,6.5,4.0
# From MPEC 2026-E44
C/2020 K6 (Rankin),h,09/13.8021/2021,103.6266,291.6038,44.2355,1.001121,5.864582,2000,8.0,4.0
# From MPEC 2026-E44
C/2020 K7 (PANSTARRS),e,32.0443,286.1327,357.9944,93.52421,0.0010897,0.93176907,2.6030,05/09.0/2026,2000,g  8.0,4.0
# From MPEC 2026-E44
P/2020 K9 (Lemmon-PANSTARRS),e,23.1829,166.2394,197.1205,4.208873,0.1141446,0.31974032,218.5060,05/09.0/2026,2000,g 12.5,4.0
# From MPEC 2026-E44
A/2020 M4,e,160.0920,348.6033,104.4194,4988,0.0000028,0.99880945,0.0000,11/21.7391/2020,2000,g 14.5,2.0
# From MPEC 2026-E44
P/2020 MK4 (PANSTARRS),e,6.7806,0.6525,95.1073,6.226436,0.0634373,0.01578527,336.6755,05/09.0/2026,2000,g  8.0,4.0
# From MPEC 2026-E44
C/2020 M5 (ATLAS),h,08/19.4985/2021,93.1552,351.9745,126.2557,1.000040,3.001490,2000,9.0,4.0
# From MPEC 2026-E44
C/2020 O2 (Amaral),e,71.7679,256.7761,10.1159,4725,0.0000030,0.99897304,0.0000,08/26.7784/2021,2000,g  8.0,3.2
# From MPEC 2026-E44
P/2020 O3 (PANSTARRS),e,8.4447,266.8177,80.8182,4.645792,0.0984270,0.10235613,190.3500,05/09.0/2026,2000,g 12.0,4.0
# From MPEC 2026-E44
C/2020 P3 (ATLAS),h,04/23.2537/2021,61.8266,19.4919,82.3810,1.003978,6.819102,2000,6.0,4.0
# From MPEC 2020-QN1
C/2020 P4-B (SOHO),h,08/07.5134/2020,26.8421,171.7843,173.3683,1.000555,0.102487,2000,0.0,6.0
# From MPEC 2020-QN1
C/2020 P4-C (SOHO),h,08/05.2487/2020,37.2418,165.4507,115.8247,1.013229,0.089347,2000,-1.6,6.0
# From MPEC 2026-E44
C/2020 PV6 (PANSTARRS),e,128.1283,329.1143,71.2444,41.39033,0.0037013,0.94465364,6.2434,05/09.0/2026,2000,g 10.0,4.0
# From MPEC 2026-E44
C/2020 Q2 (PANSTARRS),e,3.3367,179.8513,118.0759,10.58781,0.0286085,0.48842145,65.7424,05/09.0/2026,2000,g 12.0,3.2
# From MPEC 2026-E44
C/2020 R2 (PANSTARRS),e,53.1994,195.1511,211.8940,422.8886,0.0001133,0.98888082,0.0000,02/25.1059/2022,2000,g  9.0,4.0
# From MPEC 2026-E44
P/2020 R5 (PANSTARRS),e,11.4394,272.9385,82.7052,4.994892,0.0882907,0.31269827,191.9943,05/09.0/2026,2000,g  9.5,6.0
# From MPEC 2026-E44
C/2020 R7 (ATLAS),e,114.9049,268.3020,347.7002,3697,0.0000044,0.99920237,0.0000,09/15.8206/2022,2000,g  7.0,3.2
# From MPEC 2026-E44
C/2020 S4 (PANSTARRS),h,02/09.8571/2023,20.5721,117.6744,21.1087,1.003247,3.372198,2000,8.5,3.2
# From MPEC 2026-E44
P/2020 S5 (PANSTARRS),e,12.3368,315.9392,53.3059,4.060067,0.1204770,0.33694745,253.1743,05/09.0/2026,2000,g 14.5,4.0
# From MPEC 2026-E44
P/2020 S7 (PANSTARRS),e,16.0633,328.0110,40.7217,5.038472,0.0871477,0.40901368,174.2911,05/09.0/2026,2000,g 14.5,4.0
# From MPEC 2026-E44
C/2020 T2 (Palomar),e,27.8620,82.8978,150.3646,257.0602,0.0002391,0.99204012,0.0000,07/10.7466/2021,2000,g 11.0,3.2
# From MPEC 2026-E44
P/2020 T3 (PANSTARRS),e,7.2994,73.9759,357.1113,3.515488,0.1495291,0.59232775,288.8792,05/09.0/2026,2000,g 18.0,3.2
# From MPEC 2026-E44
C/2020 U4 (PANSTARRS),h,04/10.5319/2022,167.0039,120.4047,70.2067,1.001862,5.363238,2000,7.0,4.0
# From MPEC 2026-E44
C/2020 U5 (PANSTARRS),h,04/28.8009/2022,97.3153,107.3132,75.4707,1.000085,3.755876,2000,8.0,4.0
# From MPC188409
C/2020 V2 (ZTF),h,05/08.6620/2023,131.6057,212.4390,162.5007,1.001262,2.229700,2000,4.9,4.0
# From MPEC 2026-E44
P/2020 V3 (PANSTARRS),e,23.0112,198.2732,249.9734,8.414201,0.0403817,0.25768908,76.9916,05/09.0/2026,2000,g  8.3,4.0
# From MPEC 2026-E44
P/2020 V4 (Rankin),e,14.2297,203.4863,257.3672,9.407064,0.0341604,0.45156836,59.8675,05/09.0/2026,2000,g  9.0,4.0
# From MPEC 2026-E44
P/2020 W1 (Rankin),e,10.7770,124.2569,265.5449,7.227446,0.0507256,0.26483270,112.6724,05/09.0/2026,2000,g 10.0,4.0
# From MPEC 2026-E44
P/2020 WJ5 (Lemmon),e,22.2903,177.7388,338.1837,6.016324,0.0667894,0.17235940,118.3570,05/09.0/2026,2000,g  8.5,4.0
# From MPEC 2026-E44
P/2020 X1 (ATLAS),e,31.6839,55.9954,323.5205,4.538324,0.1019438,0.36390295,216.1419,05/09.0/2026,2000,g 13.0,4.0
# From MPEC 2026-E44
C/2020 X2 (ATLAS),e,18.1869,105.3523,347.6513,16.56905,0.0146136,0.76837321,29.2084,05/09.0/2026,2000,g 10.6,4.0
# From MPEC 2026-E44
C/2020 X4 (Leonard),e,80.6647,161.9695,140.2392,40.26968,0.0038569,0.87035409,7.7182,05/09.0/2026,2000,g  9.0,4.0
# From MPEC 2026-E44
C/2020 Y2 (ATLAS),e,101.2572,26.5563,266.4202,1182,0.0000243,0.99733687,0.0000,06/17.5393/2022,2000,g  6.5,4.0
# From MPEC 2026-E44
C/2021 A1 (Leonard),h,01/04.2606/2022,132.7170,255.8925,225.0988,1.000274,0.613758,2000,8.5,4.0
# From MPEC 2026-E44
P/2021 A5 (PANSTARRS),e,18.1850,328.6792,62.1494,3.052268,0.1848290,0.14102552,9.2732,05/09.0/2026,2000,g 15.0,4.0
# From MPEC 2026-E44
C/2021 A6 (PANSTARRS),e,75.5524,163.9987,351.6686,26637,0.0000002,0.99970238,0.0000,05/03.5901/2021,2000,g  7.0,4.0
# From MPEC 2026-E43
C/2021 A9 (PANSTARRS),e,158.0176,314.8485,211.6919,122929,0.0000000,0.99993682,0.0000,12/04.7502/2023,2000,g  6.0,4.0
# From MPEC 2026-E44
P/2021 C2 (PANSTARRS),e,21.9309,66.4491,78.7889,9.553113,0.0333800,0.48868452,63.3677,05/09.0/2026,2000,g 12.0,4.0
# From MPEC 2026-E44
C/2021 C4 (ATLAS),e,132.8202,194.1894,319.9684,2564,0.0000076,0.99824752,0.0000,01/15.4922/2021,2000,g  9.0,4.0
# From MPEC 2026-E44
C/2021 C5 (PANSTARRS),e,50.8092,323.6760,270.8570,1689,0.0000142,0.99808299,0.0000,02/11.0723/2023,2000,g  9.0,4.0
# From MPC191586
C/2021 D2 (ZTF),h,02/03.2524/2022,83.7632,305.6105,125.1123,1.001369,2.953602,2000,9.0,4.0
# From MPEC 2026-E44
C/2021 E3 (ZTF),e,112.5214,104.4839,228.7760,2950,0.0000062,0.99939730,0.0000,06/10.4192/2022,2000,g  8.5,4.0
# From MPEC 2026-E44
A/2021 E4,e,116.4034,171.1239,48.3215,515.3701,0.0000842,0.99091239,0.0000,04/24.9303/2022,2000,g 13.5,2.0
# From MPEC 2026-G41
C/2021 G2 (ATLAS),h,09/09.1787/2024,48.4570,221.0859,343.2697,1.001149,4.982012,2000,5.5,4.0
# From MPEC 2026-E44
C/2021 G3 (PANSTARRS),e,102.8798,147.3206,10.6417,16538,0.0000005,0.99968637,0.0000,10/18.0421/2021,2000,g 10.5,4.0
# From MPEC 2026-E44
P/2021 J3 (ATLAS),e,14.5103,110.8931,125.5292,8.875688,0.0372736,0.45001619,93.3756,05/09.0/2026,2000,g  7.0,4.0
# From MPEC 2026-E44
C/2021 K2 (MASTER),h,09/08.5387/2021,100.8855,282.2923,343.2157,1.000058,5.456655,2000,8.0,4.0
# From MPEC 2026-E44
C/2021 K3 (Catalina),h,02/02.4658/2022,134.7944,114.5195,181.9658,1.002944,5.220828,2000,10.0,4.0
# From MPEC 2026-E44
C/2021 L3 (Borisov),h,02/14.8601/2022,78.5169,345.0275,91.6633,1.004031,8.462408,2000,6.0,4.0
# From MPEC 2026-E44
P/2021 N1 (ZTF),e,11.4853,301.1311,21.2127,2.980753,0.1915204,0.67575680,344.7107,05/09.0/2026,2000,g 19.0,4.0
# From MPEC 2026-E44
P/2021 N2 (Fuls),e,13.0577,221.7573,177.6497,6.947989,0.0538165,0.45164034,88.1287,05/09.0/2026,2000,g  9.5,4.0
# From MPEC 2026-E44
C/2021 N3 (PANSTARRS),e,26.7731,337.5469,304.4967,137.7538,0.0006096,0.95858069,1.2752,05/09.0/2026,2000,g  8.5,4.0
# From MPEC 2026-E44
C/2021 P1 (PANSTARRS),e,51.6031,359.7304,40.5293,2201,0.0000095,0.99800909,0.0000,06/02.1978/2022,2000,g 11.0,4.0
# From MPEC 2026-E44
C/2021 P2 (PANSTARRS),e,150.0423,32.1040,76.6839,10147,0.0000010,0.99950081,0.0000,01/22.9329/2023,2000,g  9.0,4.0
# From MPEC 2026-E44
P/2021 P3 (PANSTARRS),e,27.1671,358.2408,333.9281,4.411405,0.1063748,0.33856708,192.3038,05/09.0/2026,2000,g 14.0,4.0
# From MPEC 2026-E44
C/2021 P4 (ATLAS),e,56.4228,347.9602,175.8361,301.6406,0.0001881,0.99642497,0.0000,07/30.6076/2022,2000,g  9.5,4.0
# From MPEC 2026-E44
C/2021 Q3 (ATLAS),e,77.7056,307.9037,114.1690,74.51715,0.0015322,0.93004918,2.3971,05/09.0/2026,2000,g  8.0,4.0
# From MPEC 2026-E44
C/2021 Q4 (Fuls),h,06/09.9509/2023,71.5597,183.3390,146.9954,1.000104,7.562821,2000,6.0,4.0
# From MPEC 2026-E44
P/2021 Q5 (ATLAS),e,10.7369,239.7283,180.9762,3.284158,0.1656029,0.62414011,283.3868,05/09.0/2026,2000,g 15.0,4.0
# From MPEC 2026-E44
C/2021 Q6 (PANSTARRS),h,03/25.2841/2024,161.8280,133.5733,141.0581,1.003660,8.707115,2000,6.0,4.0
# From MPEC 2026-E44
C/2021 QM45 (PANSTARRS),e,22.7828,354.5885,72.9792,413.5711,0.0001172,0.99327340,0.0000,08/13.4700/2022,2000,g 11.0,4.0
# From MPEC 2026-E44
P/2021 R1 (PANSTARRS),e,5.5423,143.0441,219.9435,8.231946,0.0417302,0.40602062,67.4696,05/09.0/2026,2000,g 11.0,4.0
# From MPEC 2026-E44
C/2021 R2 (PANSTARRS),e,134.4760,16.3680,32.5605,20669,0.0000003,0.99964611,0.0000,12/28.5871/2021,2000,g  7.5,4.0
# From MPEC 2026-E44
P/2021 R3 (PANSTARRS),e,19.9457,304.1992,2.5819,3.767307,0.1347900,0.33243385,243.8982,05/09.0/2026,2000,g 16.0,4.0
# From MPEC 2026-E44
P/2021 R5 (Rankin),e,7.8523,219.9708,167.6039,4.799416,0.0937393,0.30545698,147.9720,05/09.0/2026,2000,g 12.0,4.0
# From MPEC 2026-E44
P/2021 R8 (Sheppard),e,2.2026,167.0055,190.8476,3.020685,0.1877353,0.29237730,314.6153,05/09.0/2026,2000,g 18.5,4.0
# From MPEC 2026-E44
C/2021 S1 (ATLAS),h,03/02.1895/2022,52.0328,299.8484,148.3692,1.002966,6.130187,2000,7.0,4.0
# From MPC191586
C/2021 S3 (PANSTARRS),e,58.5681,215.5758,6.8297,12641,0.0000007,0.99989566,0.0000,02/14.6655/2024,2000,g  5.5,4.0
# From MPEC 2026-E44
C/2021 S4 (Tsuchinshan),e,17.4834,5.4314,73.1112,151.1434,0.0005304,0.95570204,0.4541,05/09.0/2026,2000,g  6.5,4.0
# From MPEC 2026-E44
C/2021 T4 (Lemmon),e,160.7791,257.8798,329.7204,2425,0.0000083,0.99938955,0.0000,07/31.3214/2023,2000,g  7.5,4.0
# From MPEC 2026-E44
P/2021 V2 (Fuls),e,12.6879,232.2717,259.9680,9.100581,0.0359005,0.61550621,43.1751,05/09.0/2026,2000,g 10.0,4.0
# From MPEC 2026-E44
C/2021 X1 (Maury-Attard),h,05/27.4764/2023,140.1119,10.6491,334.6525,1.000907,3.234528,2000,7.0,4.0
# From MPEC 2026-E44
C/2021 Y1 (ATLAS),h,05/01.1266/2023,77.1609,244.7621,245.8586,1.001802,2.032292,2000,7.0,4.0
# From MPEC 2026-E44
